OBJECT_NAME,OBJECT_ID,EPOCH,MEAN_MOTION,ECCENTRICITY,INCLINATION,RA_OF_ASC_NODE,ARG_OF_PERICENTER,MEAN_ANOMALY,EPHEMERIS_TYPE,CLASSIFICATION_TYPE,NORAD_CAT_ID,ELEMENT_SET_NO,REV_AT_EPOCH,BSTAR,MEAN_MOTION_DOT,MEAN_MOTION_DDOT
SL-14 R/B,1990-018B,2026-06-08T10:30:28.362528,14.82210533,.00168807,82.5204,138.2856,148.7739,211.4482,0,U,20511,999,93602,.47288214E-4,.401E-5,0
HST,1990-037B,2026-06-07T07:09:32.201568,15.30642118,.0001938,28.4712,148.1547,44.7656,315.3096,0,U,20580,999,78705,.18954E-3,.601E-4,0
SL-16 R/B,1990-046B,2026-06-08T14:33:29.988576,14.15021742,.0014049,70.9983,106.9682,174.6705,185.4570,0,U,20625,999,86125,.18575E-3,.312E-5,0
COSMOS 2084,1990-055A,2026-06-08T18:17:29.372928,15.06082742,.0005536,62.7910,24.8463,263.2209,96.8261,0,U,20663,999,95003,.16734E-3,.2256E-4,0
SL-6 R/B(2),1990-055D,2026-06-08T17:43:12.722016,15.03976322,.0039317,62.7839,304.1262,3.9956,356.1450,0,U,20666,999,95188,.157E-3,.2007E-4,0
SL-8 R/B,1990-078B,2026-06-08T11:27:39.258144,14.91986865,.03527991,82.9014,169.5116,67.7732,296.0510,0,U,20775,999,82282,.41475649E-3,.14745E-3,0
SL-8 R/B,1991-006B,2026-06-08T18:48:30.530016,13.77505331,.0023324,82.9420,102.2849,136.9853,288.5439,0,U,21088,999,77661,.36109E-4,.52E-6,0
OKEAN-3,1991-039A,2026-06-08T18:18:40.696128,15.05290085,.0014582,82.5161,248.5501,27.5909,332.6088,0,U,21397,999,87873,.15289E-3,.2218E-4,0
COSMOS 2151,1991-042A,2026-06-08T18:57:55.459008,15.00414533,.0013742,82.4962,355.7853,109.1247,251.1467,0,U,21422,999,87685,.10397E-3,.1336E-4,0
SL-14 R/B,1991-042B,2026-06-08T10:37:14.361312,14.81897004,.00157105,82.4921,135.0961,306.3317,53.6446,0,U,21423,999,86651,.48082134E-4,.404E-5,0
ERS-1,1991-050A,2026-06-08T19:46:25.070592,14.39511870,.0030773,98.7799,180.3175,292.7965,66.9972,0,U,21574,999,82884,.95773E-4,.253E-5,0
ARIANE 40 R/B,1991-050F,2026-06-08T17:28:09.778944,14.42952329,.0003881,98.1878,208.4740,139.8562,220.2916,0,U,21610,999,83212,.10178E-3,.299E-5,0
INTERCOSMOS 25,1991-086A,2026-06-08T16:38:19.652064,12.12186461,.1484331,82.6054,254.9493,280.7340,63.0552,0,U,21819,999,50771,.11763E-3,.59E-5,0
SL-8 R/B,1992-008B,2026-06-08T20:38:28.154112,13.75974601,.0033421,82.9266,199.9788,238.6935,300.7974,0,U,21876,999,72195,.66284E-4,.79E-6,0
SL-8 R/B,1992-020B,2026-06-08T19:59:46.173120,13.75548069,.0030184,82.9305,86.0621,45.2255,9.2134,0,U,21938,999,71366,.35773E-4,.5E-6,0
USA 81,1992-023A,2026-06-08T19:44:01.305312,14.32396012,.000274,85.0077,78.8350,92.1618,267.9889,0,U,21949,999,10783,.54029E-4,.166E-5,0
COSMOS 2219,1992-076A,2026-06-08T18:32:52.885248,14.14095629,.0016208,71.0575,187.6626,57.8985,302.3709,0,U,22219,999,73125,.25161E-4,.1E-7,0
SL-16 R/B,1992-076B,2026-06-08T18:33:51.181056,14.16871923,.0014488,71.0007,356.5061,309.6549,130.3961,0,U,22220,999,73473,-.77704E-4,-.204E-5,0
COSMOS 2221,1992-080A,2026-06-08T12:19:38.199648,14.96512343,.0012691,82.5034,192.0746,244.1747,115.8167,0,U,22236,999,79437,.13045891E-3,.151E-4,0
SL-16 R/B,1992-093B,2026-06-08T18:17:26.461248,14.15464702,.0004422,71.0201,173.0782,200.6469,159.4476,0,U,22285,999,72604,-.48004E-4,-.141E-5,0
COSMOS 2228,1992-094A,2026-06-08T19:15:31.932288,14.97556458,.0017764,82.5168,150.0742,1.2371,358.8892,0,U,22286,999,78969,.17299E-3,.2051E-4,0
SL-16 R/B,1993-016B,2026-06-08T19:29:14.226144,14.15309086,.0010795,71.0079,23.7989,195.6165,164.4626,0,U,22566,999,71506,.8741E-4,.123E-5,0
COSMOS 2242,1993-024A,2026-06-08T18:11:38.552640,14.96879313,.0016191,82.5178,179.6073,5.2078,354.9309,0,U,22626,999,79401,.14541E-3,.1698E-4,0
SL-16 R/B,1993-059B,2026-06-08T19:24:16.909920,14.17244713,.0015014,70.9883,178.9731,68.6325,291.6399,0,U,22803,999,69244,.14461E-3,.244E-5,0
ARIANE 40 R/B,1993-061H,2026-06-08T18:08:53.952000,14.32904525,.0011,98.4820,226.7882,21.2329,338.9309,0,U,22830,999,70714,.89363E-4,.201E-5,0
COSMOS 2278,1994-023A,2026-06-08T18:14:39.806016,14.14393335,.0010595,71.0543,344.5575,252.8024,107.1939,0,U,23087,999,65768,.21978E-3,.374E-5,0
SL-16 R/B,1994-023B,2026-06-08T11:35:24.981792,14.15019606,.00033307,70.9995,240.2108,195.7904,164.3115,0,U,23088,999,65893,.12662619E-3,.198E-5,0
SL-16 R/B,1994-074B,2026-06-08T20:24:26.536032,14.79495303,.0005151,97.6994,186.9183,288.7116,247.9591,0,U,23343,999,70072,.6067E-4,.404E-5,0
SL-16 R/B,1994-077B,2026-06-08T17:04:53.592096,14.15573224,.0002642,70.9805,160.9936,332.4881,27.6102,0,U,23405,999,62911,-.11405E-3,-.271E-5,0
ARIANE 40+ R/B,1995-021B,2026-06-08T19:03:32.031936,14.39828963,.0005919,98.4411,229.9901,220.7149,249.1926,0,U,23561,999,63235,.9879E-4,.267E-5,0
SL-16 R/B,1995-058B,2026-06-08T19:03:03.299616,14.15505159,.0013419,71.0215,348.9816,331.8124,28.2271,0,U,23705,999,58074,.13939E-5,-.45E-6,0
