SL-14 R/B               
1 20511U 90018B   26159.43782827  .00000401  00000+0  47288-4 0  9998
2 20511  82.5204 138.2856 0016880 148.7739 211.4482 14.82210533936028
HST                     
1 20580U 90037B   26158.29828937  .00006010  00000+0  18954-3 0  9990
2 20580  28.4712 148.1547 0001938  44.7656 315.3096 15.30642118787059
SL-16 R/B               
1 20625U 90046B   26159.60659709  .00000312  00000+0  18575-3 0  9993
2 20625  70.9983 106.9682 0014049 174.6705 185.4570 14.15021742861252
COSMOS 2084             
1 20663U 90055A   26159.76214552  .00002256  00000+0  16734-3 0  9999
2 20663  62.7910  24.8463 0005536 263.2209  96.8261 15.06082742950038
SL-6 R/B(2)             
1 20666U 90055D   26159.73834169  .00002007  00000+0  15700-3 0  9997
2 20666  62.7839 304.1262 0039317   3.9956 356.1450 15.03976322951883
SL-8 R/B                
1 20775U 90078B   26159.47753771  .00014745  00000+0  41476-3 0  9994
2 20775  82.9014 169.5116 0352799  67.7732 296.0510 14.91986865822825
SL-8 R/B                
1 21088U 91006B   26159.78368669  .00000052  00000+0  36109-4 0  9990
2 21088  82.9420 102.2849 0023324 136.9853 288.5439 13.77505331776612
OKEAN-3                 
1 21397U 91039A   26159.76297102  .00002218  00000+0  15289-3 0  9991
2 21397  82.5161 248.5501 0014582  27.5909 332.6088 15.05290085878732
COSMOS 2151             
1 21422U 91042A   26159.79022522  .00001336  00000+0  10397-3 0  9994
2 21422  82.4962 355.7853 0013742 109.1247 251.1467 15.00414533876857
SL-14 R/B               
1 21423U 91042B   26159.44252733  .00000404  00000+0  48082-4 0  9994
2 21423  82.4921 135.0961 0015710 306.3317  53.6446 14.81897004866518
ERS-1                   
1 21574U 91050A   26159.82390128  .00000253  00000+0  95773-4 0  9994
2 21574  98.7799 180.3175 0030773 292.7965  66.9972 14.39511870828843
ARIANE 40 R/B           
1 21610U 91050F   26159.72789096  .00000299  00000+0  10178-3 0  9995
2 21610  98.1878 208.4740 0003881 139.8562 220.2916 14.42952329832121
INTERCOSMOS 25          
1 21819U 91086A   26159.69328301  .00000590  00000+0  11763-3 0  9994
2 21819  82.6054 254.9493 1484331 280.7340  63.0552 12.12186461507715
SL-8 R/B                
1 21876U 92008B   26159.86004808  .00000079  00000+0  66284-4 0  9995
2 21876  82.9266 199.9788 0033421 238.6935 300.7974 13.75974601721956
SL-8 R/B                
1 21938U 92020B   26159.83317330  .00000050  00000+0  35773-4 0  9990
2 21938  82.9305  86.0621 0030184  45.2255   9.2134 13.75548069713664
USA 81                  
1 21949U 92023A   26159.82223733  .00000166  00000+0  54029-4 0  9990
2 21949  85.0077  78.8350 0002740  92.1618 267.9889 14.32396012107834
COSMOS 2219             
1 22219U 92076A   26159.77283432  .00000001  00000+0  25161-4 0  9998
2 22219  71.0575 187.6626 0016208  57.8985 302.3709 14.14095629731251
SL-16 R/B               
1 22220U 92076B   26159.77350904 -.00000204  00000+0 -77704-4 0  9996
2 22220  71.0007 356.5061 0014488 309.6549 130.3961 14.16871923734731
COSMOS 2221             
1 22236U 92080A   26159.51363657  .00001510  00000+0  13046-3 0  9996
2 22236  82.5034 192.0746 0012691 244.1747 115.8167 14.96512343794373
SL-16 R/B               
1 22285U 92093B   26159.76211182 -.00000141  00000+0 -48004-4 0  9990
2 22285  71.0201 173.0782 0004422 200.6469 159.4476 14.15464702726048
COSMOS 2228             
1 22286U 92094A   26159.80245292  .00002051  00000+0  17299-3 0  9997
2 22286  82.5168 150.0742 0017764   1.2371 358.8892 14.97556458789696
SL-16 R/B               
1 22566U 93016B   26159.81197021  .00000123  00000+0  87410-4 0  9991
2 22566  71.0079  23.7989 0010795 195.6165 164.4626 14.15309086715065
COSMOS 2242             
1 22626U 93024A   26159.75808510  .00001698  00000+0  14541-3 0  9994
2 22626  82.5178 179.6073 0016191   5.2078 354.9309 14.96879313794019
SL-16 R/B               
1 22803U 93059B   26159.80852905  .00000244  00000+0  14461-3 0  9999
2 22803  70.9883 178.9731 0015014  68.6325 291.6399 14.17244713692447
ARIANE 40 R/B           
1 22830U 93061H   26159.75618000  .00000201  00000+0  89363-4 0  9999
2 22830  98.4820 226.7882 0011000  21.2329 338.9309 14.32904525707143
COSMOS 2278             
1 23087U 94023A   26159.76018294  .00000374  00000+0  21978-3 0  9991
2 23087  71.0543 344.5575 0010595 252.8024 107.1939 14.14393335657686
SL-16 R/B               
1 23088U 94023B   26159.48292803  .00000198  00000+0  12663-3 0  9996
2 23088  70.9995 240.2108 0003330 195.7904 164.3115 14.15019606658938
SL-16 R/B               
1 23343U 94074B   26159.85030713  .00000404  00000+0  60670-4 0  9999
2 23343  97.6994 186.9183 0005151 288.7116 247.9591 14.79495303700720
SL-16 R/B               
1 23405U 94077B   26159.71173139 -.00000271  00000+0 -11405-3 0  9991
2 23405  70.9805 160.9936 0002642 332.4881  27.6102 14.15573224629113
ARIANE 40+ R/B          
1 23561U 95021B   26159.79412074  .00000267  00000+0  98790-4 0  9992
2 23561  98.4411 229.9901 0005919 220.7149 249.1926 14.39828963632352
SL-16 R/B               
1 23705U 95058B   26159.79378819 -.00000045  00000+0  13939-5 0  9998
2 23705  71.0215 348.9816 0013419 331.8124  28.2271 14.15505159580746
